[{"OBJECT_NAME":"JILIN-1 04","OBJECT_ID":"2017-074A","EPOCH":"2026-03-09T22:33:08.511840","MEAN_MOTION":15.3972107,"ECCENTRICITY":0.00044895,"INCLINATION":97.4764,"RA_OF_ASC_NODE":176.1669,"ARG_OF_PERICENTER":177.2975,"MEAN_ANOMALY":182.8296,"EPHEMERIS_TYPE":0,"CLASSIFICATION_TYPE":"U","NORAD_CAT_ID":43022,"ELEMENT_SET_NO":999,"REV_AT_EPOCH":45898,"BSTAR":0.00041511645,"MEAN_MOTION_DOT":0.00016346,"MEAN_MOTION_DDOT":0},{"OBJECT_NAME":"OBJECT R","OBJECT_ID":"2018-111R","EPOCH":"2026-03-09T23:55:12.472032","MEAN_MOTION":15.36792156,"ECCENTRICITY":0.00179753,"INCLINATION":97.014,"RA_OF_ASC_NODE":269.2496,"ARG_OF_PERICENTER":268.8687,"MEAN_ANOMALY":91.0499,"EPHEMERIS_TYPE":0,"CLASSIFICATION_TYPE":"U","NORAD_CAT_ID":43891,"ELEMENT_SET_NO":999,"REV_AT_EPOCH":40119,"BSTAR":0.00024292589,"MEAN_MOTION_DOT":8.703e-5,"MEAN_MOTION_DDOT":0}]
